# From MPC191631
403P/Catalina,e,12.3134,163.6939,277.8821,5.434909,0.0777885,0.50384147,165.2268,07/13.0/2026,2000,g 12.0,4.0
# From MPC194203
404P/Bressi,e,9.8037,260.0285,168.7014,4.714619,0.0962796,0.12355760,95.1322,07/13.0/2026,2000,g 10.0,4.0
# From MPC191631
405P/Lemmon,e,9.3761,3.1937,112.3335,3.602495,0.1441448,0.69029701,291.7316,07/13.0/2026,2000,g 17.5,4.0
# From MPC191631
406P/Gibbs,e,1.2098,11.4896,352.4189,3.580739,0.1454605,0.54074526,309.5237,07/13.0/2026,2000,g 17.0,4.0
# From MPC191631
407P/PANSTARRS-Fuls,e,4.8718,80.2280,92.9848,3.492887,0.1509827,0.37488241,358.1226,07/13.0/2026,2000,g 14.0,4.0
# From MPC191631
408P/Novichonok-Gerke,e,19.3446,189.4501,226.7568,4.747847,0.0952706,0.26789200,131.1286,07/13.0/2026,2000,g 11.0,4.0
# From MPC191631
410P/NEAT-LINEAR,e,9.3891,139.8821,313.4119,6.659086,0.0573564,0.51140692,105.7739,07/13.0/2026,2000,g 12.5,4.0
# From MPC191631
411P/Christensen,e,12.3838,77.6382,46.6177,5.812874,0.0703263,0.58192492,140.1840,07/13.0/2026,2000,g 13.5,4.0
# From MPC191632
412P/WISE,e,8.9289,0.8170,155.8193,3.112566,0.1794842,0.47899231,7.8006,07/13.0/2026,2000,g 17.0,4.0
# From MPC191632
413P/Larson,e,15.9471,38.9268,186.6371,3.738525,0.1363495,0.41728938,249.1607,07/13.0/2026,2000,g 14.0,4.0
# From MPC191632
414P/STEREO,e,23.4036,257.8156,210.7201,2.792829,0.2111726,0.81226062,61.1744,07/13.0/2026,2000,g 19.0,4.0
# From MPC191632
415P/Tenagra,e,31.8181,160.2589,345.9909,4.106353,0.1184458,0.19588782,233.6209,07/13.0/2026,2000,g 12.0,4.0
# From MPC191632
416P/Scotti,e,3.3646,355.7194,134.5086,4.005167,0.1229626,0.45571398,242.3286,07/13.0/2026,2000,g 15.5,4.0
# From MPC191632
417P/NEOWISE,e,11.3257,95.2424,142.1118,3.383565,0.1583588,0.53524942,310.5342,07/13.0/2026,2000,g 16.5,4.0
# From MPC191632
418P/LINEAR,e,5.7884,277.2247,307.6718,5.086262,0.0859223,0.66457250,148.6652,07/13.0/2026,2000,g 13.0,4.0
# From MPC191632
419P/PANSTARRS,e,2.7888,40.3137,187.5808,3.542091,0.1478477,0.27159091,255.9521,07/13.0/2026,2000,g 12.5,4.0
# From MPC191632
420P/Hill,e,14.5517,173.2128,156.4094,5.467940,0.0770847,0.49442002,117.2268,07/13.0/2026,2000,g 11.5,4.0
# From MPC191633
422P/Christensen,e,39.5799,36.0074,304.6963,6.270035,0.0627768,0.50517318,103.3207,07/13.0/2026,2000,g 11.0,4.0
# From MPC191633
423P/Lemmon,e,8.3386,33.2953,81.3222,6.187460,0.0640377,0.12265608,111.8106,07/13.0/2026,2000,g  8.0,4.0
# From MPC191633
425P/Kowalski,e,16.4023,210.0955,201.0407,6.355243,0.0615185,0.54311454,108.0765,07/13.0/2026,2000,g 12.0,4.0
# From MPC191633
426P/PANSTARRS,e,17.7838,280.3972,118.3745,3.186602,0.1732656,0.16068412,179.7154,07/13.0/2026,2000,g 13.5,4.0
# From MPEC 2026-L50
427P/ATLAS,e,11.8650,252.3245,99.5956,3.163573,0.1751610,0.31523691,212.4958,07/13.0/2026,2000,g 14.0,4.0
# From MPC191633
428P/Gibbs,e,8.5024,299.3053,36.8575,3.489926,0.1511749,0.51807567,285.4861,07/13.0/2026,2000,g 15.0,4.0
# From MPC191633
429P/LINEAR-Hill,e,7.5141,321.9931,75.7481,3.557017,0.1469180,0.49035505,242.9240,07/13.0/2026,2000,g 15.5,4.0
# From MPC191633
430P/Scotti,e,4.4765,54.6336,94.5035,3.102171,0.1803871,0.50056665,303.4695,07/13.0/2026,2000,g 16.5,4.0
# From MPC191633
431P/Scotti,e,22.3701,202.8200,200.0144,3.477963,0.1519556,0.47692729,244.7920,07/13.0/2026,2000,g 14.0,4.0
# From MPC191634
432P/PANSTARRS,e,10.0661,239.1271,105.2055,3.039084,0.1860330,0.24070215,331.1107,07/13.0/2026,2000,g 17.0,4.0
# From MPC191634
434P/Tenagra,e,6.3363,288.9108,128.4834,4.137867,0.1170953,0.27375130,201.4559,07/13.0/2026,2000,g 13.0,4.0
# From MPEC 2026-N12
435P/PANSTARRS,e,18.8739,98.5235,244.1588,3.022327,0.1875823,0.31744328,340.1948,07/13.0/2026,2000,g 17.0,4.0
# From MPC191634
437P/Lemmon-PANSTARRS,e,3.6878,245.8424,207.1809,4.571611,0.1008324,0.25470662,143.4238,07/13.0/2026,2000,g 13.0,4.0
# From MPEC 2026-L50
438P/Christensen,e,8.2804,260.1120,58.9203,3.854510,0.1302418,0.41413152,298.9231,07/13.0/2026,2000,g 14.5,4.0
# From MPC191634
439P/LINEAR,e,7.1106,56.3981,342.1340,3.492649,0.1509982,0.46869376,269.0868,07/13.0/2026,2000,g 13.5,4.0
# From MPEC 2026-L50
441P/PANSTARRS,e,2.5748,143.5895,178.7858,4.129830,0.1174372,0.19423957,36.0611,07/13.0/2026,2000,g 13.5,4.0
# From MPC191634
442P/McNaught,e,6.0619,31.7880,310.5927,4.945969,0.0896039,0.53306533,127.8227,07/13.0/2026,2000,g 13.5,4.0
# From MPEC 2026-L50
443P/PANSTARRS-Christensen,e,19.8886,108.9309,144.9876,4.123971,0.1176876,0.28277963,161.6582,07/13.0/2026,2000,g 13.5,4.0
# From MPC191635
445P/Lemmon-PANSTARRS,e,1.0899,126.6115,213.0035,4.041569,0.1213051,0.41523777,173.1066,07/13.0/2026,2000,g 15.0,4.0
# From MPC191635
447P/Sheppard-Tholen,e,7.4418,302.6390,97.1522,5.619603,0.0739853,0.17673821,105.8583,07/13.0/2026,2000,g 12.0,4.0
# From MPC191635
448P/PANSTARRS,e,12.1415,161.7429,218.7980,3.637644,0.1420606,0.41767089,199.8446,07/13.0/2026,2000,g 16.0,4.0
# From MPC191635
449P/Leonard,e,15.4660,242.5091,176.7932,3.599329,0.1443350,0.47957614,296.5869,07/13.0/2026,2000,g 16.0,4.0
# From MPEC 2026-KB8
450P/LONEOS,e,11.2247,123.7839,32.9078,7.453271,0.0484377,0.28312652,345.3010,07/13.0/2026,2000,g  6.5,4.0
# From MPC191635
451P/Christensen,e,26.4880,300.8611,186.8595,6.354799,0.0615250,0.55928797,81.3782,07/13.0/2026,2000,g 13.5,4.0
# From MPC191635
452P/Sheppard-Jewitt,e,6.4226,123.6584,37.1733,7.317692,0.0497901,0.42894932,58.4183,07/13.0/2026,2000,g  9.0,4.0
# From MPC191636
453P/WISE-Lemmon,e,27.0458,42.8727,70.9637,5.470468,0.0770313,0.58310528,94.5524,07/13.0/2026,2000,g 14.0,4.0
# From MPC191636
454P/PANSTARRS,e,19.8012,54.5849,20.2530,4.213356,0.1139624,0.36099566,164.9609,07/13.0/2026,2000,g 14.0,4.0
# From MPC191636
455P/PANSTARRS,e,14.1333,146.1702,237.5208,3.154471,0.1759196,0.30401175,217.2311,07/13.0/2026,2000,g 17.0,4.0
# From MPC191636
456P/PANSTARRS,e,16.9648,243.1375,233.0044,3.168585,0.1747455,0.11549435,79.3648,07/13.0/2026,2000,g 13.5,4.0
# From MPC191636
457P/Lemmon-PANSTARRS,e,5.2255,175.9526,104.3437,2.645658,0.2290359,0.11800957,158.5293,07/13.0/2026,2000,g 15.5,4.0
# From MPC191636
458P/Jahn,e,13.6220,1.5326,105.0201,3.860122,0.1299579,0.31712708,175.5545,07/13.0/2026,2000,g 14.0,4.0
# From MPC191636
459P/Catalina,e,7.1713,256.9779,205.2574,3.240600,0.1689530,0.57779422,208.9931,07/13.0/2026,2000,g 15.5,4.0
# From MPC191636
461P/WISE,e,18.3925,194.3648,174.8136,3.145285,0.1766908,0.56933011,308.0277,07/13.0/2026,2000,g 18.5,4.0
# From MPC191637
464P/PANSTARRS,e,21.6720,309.5736,267.4575,4.681972,0.0972884,0.28101985,119.8084,07/13.0/2026,2000,g 10.5,4.0
# From MPC191637
465P/Hill,e,25.8647,217.8932,140.9401,5.998467,0.0670878,0.61275307,77.9523,07/13.0/2026,2000,g 12.5,4.0
# From MPC191637
466P/PANSTARRS,e,16.7479,114.9416,195.6945,3.979449,0.1241566,0.45075648,154.4387,07/13.0/2026,2000,g 14.0,4.0
# From MPC191637
467P/LINEAR-Grauer,e,2.4797,43.2617,266.7446,5.821624,0.0701678,0.05404046,93.6165,07/13.0/2026,2000,g  9.0,4.0
# From MPC191637
468P/SidingSpring,e,50.4591,356.1378,322.5053,7.110059,0.0519869,0.44449778,50.1936,07/13.0/2026,2000,g 11.5,4.0
# From MPC191637
469P/PANSTARRS,e,20.1700,178.9592,43.5080,4.345269,0.1088126,0.30843634,23.5644,07/13.0/2026,2000,g 13.5,4.0
# From MPC191637
470P/PANSTARRS,e,8.8442,246.1504,151.5977,4.459924,0.1046436,0.38912334,98.3554,07/13.0/2026,2000,g 15.5,4.0
# From MPC191637
471P/LINEAR-Lemmon,e,4.7960,283.2987,94.6562,5.680752,0.0727939,0.62747811,68.1849,07/13.0/2026,2000,g 12.0,4.0
# From MPC194204
472P/NEAT-LINEAR,e,10.8314,205.7733,218.7495,7.747816,0.0457020,0.56310350,33.3598,07/13.0/2026,2000,g 10.5,4.0
# From MPC191638
473P/NEAT,e,56.8650,22.1906,42.9580,7.973543,0.0437751,0.82347538,37.9920,07/13.0/2026,2000,g 13.5,4.0
# From MPC191638
474P/Hogan,e,1.0967,26.7518,11.2583,3.131573,0.1778526,0.18764229,194.5530,07/13.0/2026,2000,g 15.5,4.0
# From MPC191638
475P/Spacewatch-LINEAR,e,14.5250,147.3457,40.4618,7.324932,0.0497163,0.44332505,38.3278,07/13.0/2026,2000,g 11.0,4.0
# From MPC191638
476P/PANSTARRS,e,19.0043,57.0516,46.7733,4.775142,0.0944549,0.34566753,59.9261,07/13.0/2026,2000,g 12.5,4.0
# From MPC191638
477P/PANSTARRS,e,8.9143,59.1339,305.8319,3.001138,0.1895724,0.41766605,176.2492,07/13.0/2026,2000,g 14.5,4.0
# From MPC191638
478P/ATLAS,e,12.5257,127.2571,13.3103,3.649373,0.1413763,0.34382435,113.3233,07/13.0/2026,2000,g 13.5,4.0
# From MPC191638
480P/PANSTARRS,e,13.7127,229.9876,214.5328,4.613392,0.0994657,0.24598117,116.9682,07/13.0/2026,2000,g 12.0,4.0
# From MPC191638
481P/Lemmon-PANSTARRS,e,6.0823,93.5539,356.8971,4.684461,0.0972108,0.34318604,106.8898,07/13.0/2026,2000,g 13.5,4.0
# From MPC191638
482P/PANSTARRS,e,24.4904,126.0693,339.7730,3.758017,0.1352901,0.49221504,153.7820,07/13.0/2026,2000,g 13.5,4.0
# From MPEC 2026-HI3
483P/PANSTARRS,e,14.1846,198.7789,50.0739,3.192150,0.1728141,0.22135999,275.5461,07/13.0/2026,2000,g 16.5,4.0
# From MPC186638
483P-A/PANSTARRS,e,14.1846,198.7790,50.0741,3.192150,0.1728140,0.22136037,275.5458,07/13.0/2026,2000,g 13.5,4.0
# From MPC185666
483P-B/PANSTARRS,e,14.1854,198.7786,50.0648,3.192064,0.1728211,0.22130441,275.5832,07/13.0/2026,2000,g 17.0,4.0
# From MPC191639
484P/Spacewatch,e,14.4751,265.3521,240.8847,3.755126,0.1354463,0.43330039,277.8515,07/13.0/2026,2000,g 16.0,4.0
# From MPC191639
485P/Sheppard-Tholen,e,10.0154,261.6510,196.1942,6.855061,0.0549145,0.41703477,57.7920,07/13.0/2026,2000,g 13.0,4.0
# From MPC194204
486P/Leonard,e,2.2098,219.0233,93.9307,3.626393,0.1427223,0.36324521,66.4017,07/13.0/2026,2000,g 14.5,4.0
# From MPC191639
487P/SidingSpring,e,39.3653,49.2024,0.8329,5.158983,0.0841120,0.64816677,53.0374,07/13.0/2026,2000,g 13.5,4.0
# From MPC191639
488P/NEAT-PANSTARRS,e,11.8496,322.3322,4.8828,3.802883,0.1329030,0.54609357,104.1648,07/13.0/2026,2000,g 16.5,4.0
# From MPEC 2024-Q14
489P/Denning,e,4.0259,20.5970,109.4242,4.423991,0.1059211,0.64704790,23.3765,07/13.0/2026,2000,g 15.5,4.0
# From MPEC 2026-N12
491P/Spacewatch-PANSTARRS,e,9.3669,311.6829,298.7991,5.012197,0.0878338,0.25879936,59.3249,07/13.0/2026,2000,g  9.5,4.0
# From MPC194204
